{"type": "FeatureCollection", "features": [ {"type": "Feature", "properties": {"norad_id": 66767, "name": "TRANSPORTER-15DF", "group": "last-30-days", "lat": -60.667991133958395, "lon": -123.16098082912815, "alt_km": 519.3370157214986, "timestamp": "2025-12-24T16:52:40.178859+00:00", "meta": {"OBJECT_NAME": "TRANSPORTER-15DF", "OBJECT_ID": "2025-276DF", "EPOCH": "2025-12-24T06:19:38.955648", "MEAN_MOTION": 15.18339393, "ECCENTRICITY": 0.00021169, "INCLINATION": 97.4367, "RA_OF_ASC_NODE": 69.8486, "ARG_OF_PERICENTER": 88.7226, "MEAN_ANOMALY": 271.4251, "EPHEMERIS_TYPE": 0, "CLASSIFICATION_TYPE": "U", "NORAD_CAT_ID": 66767, "ELEMENT_SET_NO": 999, "REV_AT_EPOCH": 387, "BSTAR": 0.00041878194, "MEAN_MOTION_DOT": 8.535e-05, "MEAN_MOTION_DDOT": 0}, "tle": {"line1": "1 66767U 25276DF  25358.26364532  .00008535  00000+0  41878-3 0  9999", "line2": "2 66767  97.4367  69.8486 0002116  88.7226 271.4251 15.18339393  3879"}}, "geometry": {"type": "Point", "coordinates": [-123.16098082912815, -60.667991133958395]}}, {"type": "Feature", "properties": {"norad_id": 66768, "name": "TRANSPORTER-15DG", "group": "last-30-days", "lat": -72.72520969453977, "lon": -134.5490031746956, "alt_km": 519.1112049560479, "timestamp": "2025-12-24T16:52:40.178869+00:00", "meta": {"OBJECT_NAME": "TRANSPORTER-15DG", "OBJECT_ID": "2025-276DG", "EPOCH": "2025-12-24T04:41:27.523680", "MEAN_MOTION": 15.18542786, "ECCENTRICITY": 0.00022935, "INCLINATION": 97.4354, "RA_OF_ASC_NODE": 69.783, "ARG_OF_PERICENTER": 77.9058, "MEAN_ANOMALY": 282.2433, "EPHEMERIS_TYPE": 0, "CLASSIFICATION_TYPE": "U", "NORAD_CAT_ID": 66768, "ELEMENT_SET_NO": 999, "REV_AT_EPOCH": 386, "BSTAR": 0.0005851439, "MEAN_MOTION_DOT": 0.00012028, "MEAN_MOTION_DDOT": 0}, "tle": {"line1": "1 66768U 25276DG  25358.19545745  .00012028  00000+0  58514-3 0  9996", "line2": "2 66768  97.4354  69.7830 0002293  77.9058 282.2433 15.18542786  3860"}}, "geometry": {"type": "Point", "coordinates": [-134.5490031746956, -72.72520969453977]}}, {"type": "Feature", "properties": {"norad_id": 66769, "name": "TRANSPORTER-15DH", "group": "last-30-days", "lat": -67.53056423656545, "lon": -128.12368576539924, "alt_km": 519.4234828595318, "timestamp": "2025-12-24T16:52:40.178880+00:00", "meta": {"OBJECT_NAME": "TRANSPORTER-15DH", "OBJECT_ID": "2025-276DH", "EPOCH": "2025-12-24T06:17:47.113440", "MEAN_MOTION": 15.184189, "ECCENTRICITY": 0.00027187, "INCLINATION": 97.4415, "RA_OF_ASC_NODE": 69.8653, "ARG_OF_PERICENTER": 104.726, "MEAN_ANOMALY": 255.4276, "EPHEMERIS_TYPE": 0, "CLASSIFICATION_TYPE": "U", "NORAD_CAT_ID": 66769, "ELEMENT_SET_NO": 999, "REV_AT_EPOCH": 387, "BSTAR": 0.00030879771, "MEAN_MOTION_DOT": 6.289e-05, "MEAN_MOTION_DDOT": 0}, "tle": {"line1": "1 66769U 25276DH  25358.26235085  .00006289  00000+0  30880-3 0  9996", "line2": "2 66769  97.4415  69.8653 0002718 104.7260 255.4276 15.18418900  3877"}}, "geometry": {"type": "Point", "coordinates": [-128.12368576539924, -67.53056423656545]}}, {"type": "Feature", "properties": {"norad_id": 66770, "name": "TRANSPORTER-15DJ", "group": "last-30-days", "lat": -69.15141266928572, "lon": -129.7710155855587, "alt_km": 519.4946990119242, "timestamp": "2025-12-24T16:52:40.178892+00:00", "meta": {"OBJECT_NAME": "TRANSPORTER-15DJ", "OBJECT_ID": "2025-276DJ", "EPOCH": "2025-12-24T03:07:31.859904", "MEAN_MOTION": 15.18400722, "ECCENTRICITY": 0.00033417, "INCLINATION": 97.4447, "RA_OF_ASC_NODE": 69.7464, "ARG_OF_PERICENTER": 119.8153, "MEAN_ANOMALY": 240.3414, "EPHEMERIS_TYPE": 0, "CLASSIFICATION_TYPE": "U", "NORAD_CAT_ID": 66770, "ELEMENT_SET_NO": 999, "REV_AT_EPOCH": 385, "BSTAR": 0.00044014624, "MEAN_MOTION_DOT": 8.991e-05, "MEAN_MOTION_DDOT": 0}, "tle": {"line1": "1 66770U 25276DJ  25358.13022986  .00008991  00000+0  44015-3 0  9995", "line2": "2 66770  97.4447  69.7464 0003341 119.8153 240.3414 15.18400722  3852"}}, "geometry": {"type": "Point", "coordinates": [-129.7710155855587, -69.15141266928572]}}, {"type": "Feature", "properties": {"norad_id": 66771, "name": "TRANSPORTER-15DK", "group": "last-30-days", "lat": -71.77460665901643, "lon": -133.08712963940204, "alt_km": 519.3985566584151, "timestamp": "2025-12-24T16:52:40.178902+00:00", "meta": {"OBJECT_NAME": "TRANSPORTER-15DK", "OBJECT_ID": "2025-276DK", "EPOCH": "2025-12-24T04:41:42.902016", "MEAN_MOTION": 15.18486027, "ECCENTRICITY": 0.00030991, "INCLINATION": 97.4441, "RA_OF_ASC_NODE": 69.8095, "ARG_OF_PERICENTER": 112.2935, "MEAN_ANOMALY": 247.8628, "EPHEMERIS_TYPE": 0, "CLASSIFICATION_TYPE": "U", "NORAD_CAT_ID": 66771, "ELEMENT_SET_NO": 999, "REV_AT_EPOCH": 386, "BSTAR": 0.00053410043, "MEAN_MOTION_DOT": 0.00010954, "MEAN_MOTION_DDOT": 0}, "tle": {"line1": "1 66771U 25276DK  25358.19563544  .00010954  00000+0  53410-3 0  9993", "line2": "2 66771  97.4441  69.8095 0003099 112.2935 247.8628 15.18486027  3865"}}, "geometry": {"type": "Point", "coordinates": [-133.08712963940204, -71.77460665901643]}}, {"type": "Feature", "properties": {"norad_id": 66772, "name": "TRANSPORTER-15DL", "group": "last-30-days", "lat": -82.11260890837238, "lon": 179.63232302775282, "alt_km": 519.1215562692332, "timestamp": "2025-12-24T16:52:40.178912+00:00", "meta": {"OBJECT_NAME": "TRANSPORTER-15DL", "OBJECT_ID": "2025-276DL", "EPOCH": "2025-12-24T04:38:05.915328", "MEAN_MOTION": 15.18706689, "ECCENTRICITY": 0.00030119, "INCLINATION": 97.4432, "RA_OF_ASC_NODE": 69.8096, "ARG_OF_PERICENTER": 99.715, "MEAN_ANOMALY": 260.4425, "EPHEMERIS_TYPE": 0, "CLASSIFICATION_TYPE": "U", "NORAD_CAT_ID": 66772, "ELEMENT_SET_NO": 999, "REV_AT_EPOCH": 386, "BSTAR": 0.00057105262, "MEAN_MOTION_DOT": 0.00011792, "MEAN_MOTION_DDOT": 0}, "tle": {"line1": "1 66772U 25276DL  25358.19312402  .00011792  00000+0  57105-3 0  9995", "line2": "2 66772  97.4432  69.8096 0003011  99.7150 260.4425 15.18706689  3864"}}, "geometry": {"type": "Point", "coordinates": [179.63232302775282, -82.11260890837238]}}, {"type": "Feature", "properties": {"norad_id": 66773, "name": "TRANSPORTER-15DM", "group": "last-30-days", "lat": -77.47386478162079, "lon": -145.73631830423255, "alt_km": 519.6883169112562, "timestamp": "2025-12-24T16:52:40.178924+00:00", "meta": {"OBJECT_NAME": "TRANSPORTER-15DM", "OBJECT_ID": "2025-276DM", "EPOCH": "2025-12-24T06:14:53.422656", "MEAN_MOTION": 15.18544274, "ECCENTRICITY": 0.00032511, "INCLINATION": 97.4428, "RA_OF_ASC_NODE": 69.8717, "ARG_OF_PERICENTER": 99.8547, "MEAN_ANOMALY": 260.3055, "EPHEMERIS_TYPE": 0, "CLASSIFICATION_TYPE": "U", "NORAD_CAT_ID": 66773, "ELEMENT_SET_NO": 999, "REV_AT_EPOCH": 387, "BSTAR": 0.00052119048, "MEAN_MOTION_DOT": 0.00010705, "MEAN_MOTION_DDOT": 0}, "tle": {"line1": "1 66773U 25276DM  25358.26034054  .00010705  00000+0  52119-3 0  9991", "line2": "2 66773  97.4428  69.8717 0003251  99.8547 260.3055 15.18544274  3876"}}, "geometry": {"type": "Point", "coordinates": [-145.73631830423255, -77.47386478162079]}}, {"type": "Feature", "properties": {"norad_id": 66774, "name": "TRANSPORTER-15DN", "group": "last-30-days", "lat": -79.76867751671364, "lon": -156.0934197326756, "alt_km": 519.4742679561296, "timestamp": "2025-12-24T16:52:40.178934+00:00", "meta": {"OBJECT_NAME": "TRANSPORTER-15DN", "OBJECT_ID": "2025-276DN", "EPOCH": "2025-12-24T06:14:06.159264", "MEAN_MOTION": 15.18600649, "ECCENTRICITY": 0.00030725, "INCLINATION": 97.4414, "RA_OF_ASC_NODE": 69.868, "ARG_OF_PERICENTER": 97.0909, "MEAN_ANOMALY": 263.0675, "EPHEMERIS_TYPE": 0, "CLASSIFICATION_TYPE": "U", "NORAD_CAT_ID": 66774, "ELEMENT_SET_NO": 999, "REV_AT_EPOCH": 387, "BSTAR": 0.00041155455, "MEAN_MOTION_DOT": 8.45e-05, "MEAN_MOTION_DDOT": 0}, "tle": {"line1": "1 66774U 25276DN  25358.25979351  .00008450  00000+0  41155-3 0  9991", "line2": "2 66774  97.4414  69.8680 0003072  97.0909 263.0675 15.18600649  3871"}}, "geometry": {"type": "Point", "coordinates": [-156.0934197326756, -79.76867751671364]}}, {"type": "Feature", "properties": {"norad_id": 66775, "name": "PHI 1", "group": "last-30-days", "lat": -82.17713660938635, "lon": 178.41143379134388, "alt_km": 518.9982110278961, "timestamp": "2025-12-24T16:52:40.178945+00:00", "meta": {"OBJECT_NAME": "PHI 1", "OBJECT_ID": "2025-276DP", "EPOCH": "2025-12-24T03:03:08.809056", "MEAN_MOTION": 15.18667014, "ECCENTRICITY": 0.00028397, "INCLINATION": 97.4339, "RA_OF_ASC_NODE": 69.7169, "ARG_OF_PERICENTER": 66.2802, "MEAN_ANOMALY": 293.873, "EPHEMERIS_TYPE": 0, "CLASSIFICATION_TYPE": "U", "NORAD_CAT_ID": 66775, "ELEMENT_SET_NO": 999, "REV_AT_EPOCH": 385, "BSTAR": 0.00051664598, "MEAN_MOTION_DOT": 0.00010649, "MEAN_MOTION_DDOT": 0}, "tle": {"line1": "1 66775U 25276DP  25358.12718529  .00010649  00000+0  51665-3 0  9996", "line2": "2 66775  97.4339  69.7169 0002839  66.2802 293.8730 15.18667014  3859"}}, "geometry": {"type": "Point", "coordinates": [178.41143379134388, -82.17713660938635]}}, {"type": "Feature", "properties": {"norad_id": 66776, "name": "TRANSPORTER-15DQ", "group": "last-30-days", "lat": -82.5552494702386, "lon": 161.57213792138393, "alt_km": 519.0787890127349, "timestamp": "2025-12-24T16:52:40.178955+00:00", "meta": {"OBJECT_NAME": "TRANSPORTER-15DQ", "OBJECT_ID": "2025-276DQ", "EPOCH": "2025-12-24T06:12:19.875168", "MEAN_MOTION": 15.18713408, "ECCENTRICITY": 0.00029478, "INCLINATION": 97.4378, "RA_OF_ASC_NODE": 69.8586, "ARG_OF_PERICENTER": 82.3232, "MEAN_ANOMALY": 277.8337, "EPHEMERIS_TYPE": 0, "CLASSIFICATION_TYPE": "U", "NORAD_CAT_ID": 66776, "ELEMENT_SET_NO": 999, "REV_AT_EPOCH": 387, "BSTAR": 0.00046203297, "MEAN_MOTION_DOT": 9.527e-05, "MEAN_MOTION_DDOT": 0}, "tle": {"line1": "1 66776U 25276DQ  25358.25856337  .00009527  00000+0  46203-3 0  9996", "line2": "2 66776  97.4378  69.8586 0002947  82.3232 277.8337 15.18713408  3879"}}, "geometry": {"type": "Point", "coordinates": [161.57213792138393, -82.5552494702386]}}]}